COSMOS 2058             
1 20465U 90010A   26093.20991092  .00008007  00000+0  47009-3 0  9996
2 20465  82.4724  23.2679 0007865 243.6689 116.3733 15.11567341945948
SL-14 R/B               
1 20466U 90010B   26093.50708403  .00000870  00000+0  10247-3 0  9996
2 20466  82.5005 244.0710 0018949 214.6275 145.3707 14.83595221932164
SL-14 R/B               
1 20511U 90018B   26093.54870228  .00000741  00000+0  89964-4 0  9994
2 20511  82.5242 199.8601 0016494  15.2909 344.8800 14.82171439926260
HST                     
1 20580U 90037B   26093.40836461  .00012900  00000+0  42468-3 0  9994
2 20580  28.4722 231.3262 0002118  49.5070 310.5710 15.29894294777100
SL-16 R/B               
1 20625U 90046B   26093.51000156  .00000074  00000+0  62629-4 0  9991
2 20625  70.9985 245.7817 0016528 267.3874  92.5356 14.15019177851907
COSMOS 2084             
1 20663U 90055A   26093.49341418  .00005169  00000+0  36767-3 0  9992
2 20663  62.7896 250.9690 0013131 198.4729 161.5896 15.05805019940055
SL-6 R/B(2)             
1 20666U 90055D   26093.51012063  .00003362  00000+0  25627-3 0  9995
2 20666  62.7830 169.4376 0028861 352.5730   7.4938 15.03721399941920
SL-8 R/B                
1 20775U 90078B   26093.43188671  .00018379  00000+0  54484-3 0  9998
2 20775  82.9040 229.0427 0357573 290.5020  65.8162 14.89801705812989
SL-8 R/B                
1 21088U 91006B   26093.55115550  .00000149  00000+0  13432-3 0  9991
2 21088  82.9436 151.5615 0021491 328.7121 154.3308 13.77498548767491
OKEAN-3                 
1 21397U 91039A   26093.54709911  .00005423  00000+0  38016-3 0  9994
2 21397  82.5148 312.7569 0012743 245.0442 114.9461 15.04958958868779
COSMOS 2151             
1 21422U 91042A   26093.49625483  .00003672  00000+0  29128-3 0  9990
2 21422  82.4957  59.7397 0011803 344.5754  15.5109 15.00219821866913
SL-14 R/B               
1 21423U 91042B   26093.53952109  .00000760  00000+0  92991-4 0  9998
2 21423  82.4960 196.8861 0017688 155.1079 205.0993 14.81856655856758
