CCSDS_OMM_VERS = 2.0
CREATION_DATE  = 
ORIGINATOR     = 

OBJECT_NAME    = COSMOS 2058
OBJECT_ID      = 1990-010A
CENTER_NAME    = EARTH
REF_FRAME      = TEME
TIME_SYSTEM    = UTC
MEAN_ELEMENT_THEORY = SGP/SGP4

EPOCH          = 2026-04-03T05:02:16.303488
MEAN_MOTION    = 15.11567341
ECCENTRICITY   = .0007865
INCLINATION    = 82.4724
RA_OF_ASC_NODE = 23.2679
ARG_OF_PERICENTER = 243.6689
MEAN_ANOMALY   = 116.3733

EPHEMERIS_TYPE = 0
CLASSIFICATION_TYPE = U
NORAD_CAT_ID   = 20465
ELEMENT_SET_NO = 999
REV_AT_EPOCH   = 94594
BSTAR          = .47009E-3
MEAN_MOTION_DOT = .8007E-4
MEAN_MOTION_DDOT = 0

CCSDS_OMM_VERS = 2.0
CREATION_DATE  = 
ORIGINATOR     = 

OBJECT_NAME    = SL-14 R/B
OBJECT_ID      = 1990-010B
CENTER_NAME    = EARTH
REF_FRAME      = TEME
TIME_SYSTEM    = UTC
MEAN_ELEMENT_THEORY = SGP/SGP4

EPOCH          = 2026-04-03T12:10:12.060192
MEAN_MOTION    = 14.83595221
ECCENTRICITY   = .0018949
INCLINATION    = 82.5005
RA_OF_ASC_NODE = 244.0710
ARG_OF_PERICENTER = 214.6275
MEAN_ANOMALY   = 145.3707

EPHEMERIS_TYPE = 0
CLASSIFICATION_TYPE = U
NORAD_CAT_ID   = 20466
ELEMENT_SET_NO = 999
REV_AT_EPOCH   = 93216
BSTAR          = .10247E-3
MEAN_MOTION_DOT = .87E-5
MEAN_MOTION_DDOT = 0

CCSDS_OMM_VERS = 2.0
CREATION_DATE  = 
ORIGINATOR     = 

OBJECT_NAME    = SL-14 R/B
OBJECT_ID      = 1990-018B
CENTER_NAME    = EARTH
REF_FRAME      = TEME
TIME_SYSTEM    = UTC
MEAN_ELEMENT_THEORY = SGP/SGP4

EPOCH          = 2026-04-03T13:10:07.876992
MEAN_MOTION    = 14.82171439
ECCENTRICITY   = .0016494
INCLINATION    = 82.5242
RA_OF_ASC_NODE = 199.8601
ARG_OF_PERICENTER = 15.2909
MEAN_ANOMALY   = 344.8800

EPHEMERIS_TYPE = 0
CLASSIFICATION_TYPE = U
NORAD_CAT_ID   = 20511
ELEMENT_SET_NO = 999
REV_AT_EPOCH   = 92626
BSTAR          = .89964E-4
MEAN_MOTION_DOT = .741E-5
MEAN_MOTION_DDOT = 0

CCSDS_OMM_VERS = 2.0
CREATION_DATE  = 
ORIGINATOR     = 

OBJECT_NAME    = HST
OBJECT_ID      = 1990-037B
CENTER_NAME    = EARTH
REF_FRAME      = TEME
TIME_SYSTEM    = UTC
MEAN_ELEMENT_THEORY = SGP/SGP4

EPOCH          = 2026-04-03T09:48:02.702304
MEAN_MOTION    = 15.29894294
ECCENTRICITY   = .0002118
INCLINATION    = 28.4722
RA_OF_ASC_NODE = 231.3262
ARG_OF_PERICENTER = 49.5070
MEAN_ANOMALY   = 310.5710

EPHEMERIS_TYPE = 0
CLASSIFICATION_TYPE = U
NORAD_CAT_ID   = 20580
ELEMENT_SET_NO = 999
REV_AT_EPOCH   = 77710
BSTAR          = .42468E-3
MEAN_MOTION_DOT = .129E-3
MEAN_MOTION_DDOT = 0

CCSDS_OMM_VERS = 2.0
CREATION_DATE  = 
ORIGINATOR     = 

OBJECT_NAME    = SL-16 R/B
OBJECT_ID      = 1990-046B
CENTER_NAME    = EARTH
REF_FRAME      = TEME
TIME_SYSTEM    = UTC
MEAN_ELEMENT_THEORY = SGP/SGP4

EPOCH          = 2026-04-03T12:14:24.134784
MEAN_MOTION    = 14.15019177
ECCENTRICITY   = .0016528
INCLINATION    = 70.9985
RA_OF_ASC_NODE = 245.7817
ARG_OF_PERICENTER = 267.3874
MEAN_ANOMALY   = 92.5356

EPHEMERIS_TYPE = 0
CLASSIFICATION_TYPE = U
NORAD_CAT_ID   = 20625
ELEMENT_SET_NO = 999
REV_AT_EPOCH   = 85190
BSTAR          = .62629E-4
MEAN_MOTION_DOT = .74E-6
MEAN_MOTION_DDOT = 0

CCSDS_OMM_VERS = 2.0
CREATION_DATE  = 
ORIGINATOR     = 

OBJECT_NAME    = COSMOS 2084
OBJECT_ID      = 1990-055A
CENTER_NAME    = EARTH
REF_FRAME      = TEME
TIME_SYSTEM    = UTC
MEAN_ELEMENT_THEORY = SGP/SGP4

EPOCH          = 2026-04-03T11:50:30.985152
MEAN_MOTION    = 15.05805019
ECCENTRICITY   = .0013131
INCLINATION    = 62.7896
RA_OF_ASC_NODE = 250.9690
ARG_OF_PERICENTER = 198.4729
MEAN_ANOMALY   = 161.5896

EPHEMERIS_TYPE = 0
CLASSIFICATION_TYPE = U
NORAD_CAT_ID   = 20663
ELEMENT_SET_NO = 999
REV_AT_EPOCH   = 94005
BSTAR          = .36767E-3
MEAN_MOTION_DOT = .5169E-4
MEAN_MOTION_DDOT = 0

CCSDS_OMM_VERS = 2.0
CREATION_DATE  = 
ORIGINATOR     = 

OBJECT_NAME    = SL-6 R/B(2)
OBJECT_ID      = 1990-055D
CENTER_NAME    = EARTH
REF_FRAME      = TEME
TIME_SYSTEM    = UTC
MEAN_ELEMENT_THEORY = SGP/SGP4

EPOCH          = 2026-04-03T12:14:34.422432
MEAN_MOTION    = 15.03721399
ECCENTRICITY   = .0028861
INCLINATION    = 62.7830
RA_OF_ASC_NODE = 169.4376
ARG_OF_PERICENTER = 352.5730
MEAN_ANOMALY   = 7.4938

EPHEMERIS_TYPE = 0
CLASSIFICATION_TYPE = U
NORAD_CAT_ID   = 20666
ELEMENT_SET_NO = 999
REV_AT_EPOCH   = 94192
BSTAR          = .25627E-3
MEAN_MOTION_DOT = .3362E-4
MEAN_MOTION_DDOT = 0

CCSDS_OMM_VERS = 2.0
CREATION_DATE  = 
ORIGINATOR     = 

OBJECT_NAME    = SL-8 R/B
OBJECT_ID      = 1990-078B
CENTER_NAME    = EARTH
REF_FRAME      = TEME
TIME_SYSTEM    = UTC
MEAN_ELEMENT_THEORY = SGP/SGP4

EPOCH          = 2026-04-03T10:21:55.011744
MEAN_MOTION    = 14.89801705
ECCENTRICITY   = .0357573
INCLINATION    = 82.9040
RA_OF_ASC_NODE = 229.0427
ARG_OF_PERICENTER = 290.5020
MEAN_ANOMALY   = 65.8162

EPHEMERIS_TYPE = 0
CLASSIFICATION_TYPE = U
NORAD_CAT_ID   = 20775
ELEMENT_SET_NO = 999
REV_AT_EPOCH   = 81298
BSTAR          = .54484E-3
MEAN_MOTION_DOT = .18379E-3
MEAN_MOTION_DDOT = 0

CCSDS_OMM_VERS = 2.0
CREATION_DATE  = 
ORIGINATOR     = 

OBJECT_NAME    = SL-8 R/B
OBJECT_ID      = 1991-006B
CENTER_NAME    = EARTH
REF_FRAME      = TEME
TIME_SYSTEM    = UTC
MEAN_ELEMENT_THEORY = SGP/SGP4

EPOCH          = 2026-04-03T13:13:39.835200
MEAN_MOTION    = 13.77498548
ECCENTRICITY   = .0021491
INCLINATION    = 82.9436
RA_OF_ASC_NODE = 151.5615
ARG_OF_PERICENTER = 328.7121
MEAN_ANOMALY   = 154.3308

EPHEMERIS_TYPE = 0
CLASSIFICATION_TYPE = U
NORAD_CAT_ID   = 21088
ELEMENT_SET_NO = 999
REV_AT_EPOCH   = 76749
BSTAR          = .13432E-3
MEAN_MOTION_DOT = .149E-5
MEAN_MOTION_DDOT = 0

CCSDS_OMM_VERS = 2.0
CREATION_DATE  = 
ORIGINATOR     = 

OBJECT_NAME    = OKEAN-3
OBJECT_ID      = 1991-039A
CENTER_NAME    = EARTH
REF_FRAME      = TEME
TIME_SYSTEM    = UTC
MEAN_ELEMENT_THEORY = SGP/SGP4

EPOCH          = 2026-04-03T13:07:49.363104
MEAN_MOTION    = 15.04958958
ECCENTRICITY   = .0012743
INCLINATION    = 82.5148
RA_OF_ASC_NODE = 312.7569
ARG_OF_PERICENTER = 245.0442
MEAN_ANOMALY   = 114.9461

EPHEMERIS_TYPE = 0
CLASSIFICATION_TYPE = U
NORAD_CAT_ID   = 21397
ELEMENT_SET_NO = 999
REV_AT_EPOCH   = 86877
BSTAR          = .38016E-3
MEAN_MOTION_DOT = .5423E-4
MEAN_MOTION_DDOT = 0

CCSDS_OMM_VERS = 2.0
CREATION_DATE  = 
ORIGINATOR     = 

OBJECT_NAME    = COSMOS 2151
OBJECT_ID      = 1991-042A
CENTER_NAME    = EARTH
REF_FRAME      = TEME
TIME_SYSTEM    = UTC
MEAN_ELEMENT_THEORY = SGP/SGP4

EPOCH          = 2026-04-03T11:54:36.417312
MEAN_MOTION    = 15.00219821
ECCENTRICITY   = .0011803
INCLINATION    = 82.4957
RA_OF_ASC_NODE = 59.7397
ARG_OF_PERICENTER = 344.5754
MEAN_ANOMALY   = 15.5109

EPHEMERIS_TYPE = 0
CLASSIFICATION_TYPE = U
NORAD_CAT_ID   = 21422
ELEMENT_SET_NO = 999
REV_AT_EPOCH   = 86691
BSTAR          = .29128E-3
MEAN_MOTION_DOT = .3672E-4
MEAN_MOTION_DDOT = 0

CCSDS_OMM_VERS = 2.0
CREATION_DATE  = 
ORIGINATOR     = 

OBJECT_NAME    = SL-14 R/B
OBJECT_ID      = 1991-042B
CENTER_NAME    = EARTH
REF_FRAME      = TEME
TIME_SYSTEM    = UTC
MEAN_ELEMENT_THEORY = SGP/SGP4

EPOCH          = 2026-04-03T12:56:54.622176
MEAN_MOTION    = 14.81856655
ECCENTRICITY   = .0017688
INCLINATION    = 82.4960
RA_OF_ASC_NODE = 196.8861
ARG_OF_PERICENTER = 155.1079
MEAN_ANOMALY   = 205.0993

EPHEMERIS_TYPE = 0
CLASSIFICATION_TYPE = U
NORAD_CAT_ID   = 21423
ELEMENT_SET_NO = 999
REV_AT_EPOCH   = 85675
BSTAR          = .92991E-4
MEAN_MOTION_DOT = .76E-5
MEAN_MOTION_DDOT = 0

